KUIPER-00061            
1 64521U 25134X   25231.91943261  .00042569  00000+0  11889-2 0  9995
2 64521  51.8741  53.8647 0006162 311.5428  48.5029 15.36275449 10069
KUIPER-00062            
1 64522U 25134Y   25231.82009128  .00013480  00000+0  67769-3 0  9990
2 64522  51.8821  56.2396 0008279 323.3236  36.7174 15.17505146 10032
KUIPER-00063            
1 64523U 25134Z   25231.88411786  .00008674  00000+0  40866-3 0  9992
2 64523  51.8776  55.1084 0005514 264.6308  95.4043 15.20255514 10054
KUIPER-00064            
1 64524U 25134AA  25231.88970153  .00016471  00000+0  66549-3 0  9991
2 64524  51.8825  54.4730 0002602  24.0985 336.0118 15.24872396 10069
KUIPER-00065            
1 64525U 25134AB  25231.82659499 -.00189286  00000+0 -10404-1 0  9997
2 64525  51.8845  56.8171 0008705 329.1094  30.9370 15.14461511 10014
KUIPER-00066            
1 64526U 25134AC  25231.89829519  .00017414  00000+0  72963-3 0  9998
2 64526  51.8840  54.4621 0004208 307.7802  52.2797 15.23602512 10060
KUIPER-00069            
1 64816U 25151A   25231.94914118  .00040207  00000+0  11244-2 0  9995
2 64816  51.8795 120.3181 0005483 259.3989 100.6380 15.36264948  6500
KUIPER-00070            
1 64817U 25151B   25231.91659970  .00018447  00000+0  90188-3 0  9991
2 64817  51.8893 122.3678 0007047 288.9422  71.0793 15.18244188  6470
